<?xml version="1.0" encoding="UTF-8"?>
<kml xmlns="http://www.opengis.net/kml/2.2">
  <Document>
    <name>mujaaco.com - Mujahid Siyam (Mujaa)</name>
    <description>Geo location data for Mujahid Siyam (Mujaa / mujaaco) — Software Engineer, Rapper, and Hip-Hop Producer based in Paris, France.</description>
    <Placemark>
      <name>Mujahid Siyam (Mujaa)</name>
      <description>Born in Sudan. Based in Paris, France. Software engineer, network engineer, AI cloud architect, data scientist, system administrator, rapper, and hip-hop producer. Founder of Zaroxi Studio (zaroxi.com).</description>
      <address>Paris, France</address>
      <Point>
        <coordinates>2.3522,48.8566,0</coordinates>
      </Point>
    </Placemark>
    <Placemark>
      <name>Sudan (Birthplace)</name>
      <description>Country of birth and origin of Mujahid Siyam (Mujaa / mujaaco).</description>
      <Point>
        <coordinates>32.5599,15.5007,0</coordinates>
      </Point>
    </Placemark>
  </Document>
</kml>
